[{"OBJECT_NAME":"BADR-5","OBJECT_ID":"2010-025A","EPOCH":"2026-03-06T12:22:14.289888","MEAN_MOTION":1.00277241,"ECCENTRICITY":0.00016505,"INCLINATION":0.0404,"RA_OF_ASC_NODE":126.0454,"ARG_OF_PERICENTER":273.4325,"MEAN_ANOMALY":336.3196,"EPHEMERIS_TYPE":0,"CLASSIFICATION_TYPE":"U","NORAD_CAT_ID":36592,"ELEMENT_SET_NO":999,"REV_AT_EPOCH":5218,"BSTAR":0,"MEAN_MOTION_DOT":1.41e-6,"MEAN_MOTION_DDOT":0},{"OBJECT_NAME":"COMS 1","OBJECT_ID":"2010-032A","EPOCH":"2026-03-06T09:17:38.863104","MEAN_MOTION":1.00271769,"ECCENTRICITY":0.00012474,"INCLINATION":4.5407,"RA_OF_ASC_NODE":76.8433,"ARG_OF_PERICENTER":292.8421,"MEAN_ANOMALY":62.0076,"EPHEMERIS_TYPE":0,"CLASSIFICATION_TYPE":"U","NORAD_CAT_ID":36744,"ELEMENT_SET_NO":999,"REV_AT_EPOCH":5005,"BSTAR":0,"MEAN_MOTION_DOT":-3.47e-6,"MEAN_MOTION_DDOT":0},{"OBJECT_NAME":"ARABSAT-5A","OBJECT_ID":"2010-032B","EPOCH":"2026-03-06T19:14:11.621760","MEAN_MOTION":1.0027189,"ECCENTRICITY":0.000291,"INCLINATION":0.0768,"RA_OF_ASC_NODE":54.7443,"ARG_OF_PERICENTER":318.8708,"MEAN_ANOMALY":109.9239,"EPHEMERIS_TYPE":0,"CLASSIFICATION_TYPE":"U","NORAD_CAT_ID":36745,"ELEMENT_SET_NO":999,"REV_AT_EPOCH":5762,"BSTAR":0,"MEAN_MOTION_DOT":1.5e-6,"MEAN_MOTION_DDOT":0},{"OBJECT_NAME":"ECHOSTAR 15","OBJECT_ID":"2010-034A","EPOCH":"2026-03-06T13:23:37.736160","MEAN_MOTION":1.00271441,"ECCENTRICITY":0.00020829,"INCLINATION":0.0466,"RA_OF_ASC_NODE":278.3529,"ARG_OF_PERICENTER":57.9754,"MEAN_ANOMALY":270.0323,"EPHEMERIS_TYPE":0,"CLASSIFICATION_TYPE":"U","NORAD_CAT_ID":36792,"ELEMENT_SET_NO":999,"REV_AT_EPOCH":5729,"BSTAR":0,"MEAN_MOTION_DOT":-4.0e-8,"MEAN_MOTION_DDOT":0},{"OBJECT_NAME":"BEIDOU-2 IGSO-1","OBJECT_ID":"2010-036A","EPOCH":"2026-03-05T17:10:32.013120","MEAN_MOTION":1.00252203,"ECCENTRICITY":0.00540174,"INCLINATION":54.2927,"RA_OF_ASC_NODE":163.8986,"ARG_OF_PERICENTER":218.9744,"MEAN_ANOMALY":143.184,"EPHEMERIS_TYPE":0,"CLASSIFICATION_TYPE":"U","NORAD_CAT_ID":36828,"ELEMENT_SET_NO":999,"REV_AT_EPOCH":5706,"BSTAR":0,"MEAN_MOTION_DOT":-1.26e-6,"MEAN_MOTION_DDOT":0},{"OBJECT_NAME":"NILESAT 201","OBJECT_ID":"2010-037A","EPOCH":"2026-03-06T08:47:27.385152","MEAN_MOTION":1.00272931,"ECCENTRICITY":0.00030664,"INCLINATION":0.0174,"RA_OF_ASC_NODE":170.2247,"ARG_OF_PERICENTER":188.0708,"MEAN_ANOMALY":290.6287,"EPHEMERIS_TYPE":0,"CLASSIFICATION_TYPE":"U","NORAD_CAT_ID":36830,"ELEMENT_SET_NO":999,"REV_AT_EPOCH":5734,"BSTAR":0,"MEAN_MOTION_DOT":-6.2e-7,"MEAN_MOTION_DDOT":0},{"OBJECT_NAME":"RASCOM-QAF 1R","OBJECT_ID":"2010-037B","EPOCH":"2026-03-06T19:06:27.362592","MEAN_MOTION":1.00271683,"ECCENTRICITY":0.0006551,"INCLINATION":0.0331,"RA_OF_ASC_NODE":117.9135,"ARG_OF_PERICENTER":220.7216,"MEAN_ANOMALY":115.3683,"EPHEMERIS_TYPE":0,"CLASSIFICATION_TYPE":"U","NORAD_CAT_ID":36831,"ELEMENT_SET_NO":999,"REV_AT_EPOCH":5727,"BSTAR":0,"MEAN_MOTION_DOT":1.5e-7,"MEAN_MOTION_DDOT":0},{"OBJECT_NAME":"AEHF-1 (USA 214)","OBJECT_ID":"2010-039A","EPOCH":"2026-03-06T14:06:11.155968","MEAN_MOTION":1.00266366,"ECCENTRICITY":0.00044201,"INCLINATION":7.9666,"RA_OF_ASC_NODE":69.3827,"ARG_OF_PERICENTER":277.1647,"MEAN_ANOMALY":59.3482,"EPHEMERIS_TYPE":0,"CLASSIFICATION_TYPE":"U","NORAD_CAT_ID":36868,"ELEMENT_SET_NO":999,"REV_AT_EPOCH":5262,"BSTAR":0,"MEAN_MOTION_DOT":1.46e-6,"MEAN_MOTION_DDOT":0},{"OBJECT_NAME":"XM-5","OBJECT_ID":"2010-053A","EPOCH":"2026-03-06T13:24:37.639872","MEAN_MOTION":1.0027094,"ECCENTRICITY":0.00035696,"INCLINATION":0.0668,"RA_OF_ASC_NODE":273.7447,"ARG_OF_PERICENTER":252.7855,"MEAN_ANOMALY":83.6924,"EPHEMERIS_TYPE":0,"CLASSIFICATION_TYPE":"U","NORAD_CAT_ID":37185,"ELEMENT_SET_NO":999,"REV_AT_EPOCH":5645,"BSTAR":0,"MEAN_MOTION_DOT":-2.7e-7,"MEAN_MOTION_DDOT":0},{"OBJECT_NAME":"BSAT-3B","OBJECT_ID":"2010-056B","EPOCH":"2026-03-06T15:07:51.203136","MEAN_MOTION":1.00272992,"ECCENTRICITY":0.00017757,"INCLINATION":0.0794,"RA_OF_ASC_NODE":246.3173,"ARG_OF_PERICENTER":35.5753,"MEAN_ANOMALY":219.2506,"EPHEMERIS_TYPE":0,"CLASSIFICATION_TYPE":"U","NORAD_CAT_ID":37207,"ELEMENT_SET_NO":999,"REV_AT_EPOCH":5107,"BSTAR":0,"MEAN_MOTION_DOT":-3.54e-6,"MEAN_MOTION_DDOT":0},{"OBJECT_NAME":"BEIDOU-2 G4","OBJECT_ID":"2010-057A","EPOCH":"2026-03-06T19:51:08.079840","MEAN_MOTION":1.0027242,"ECCENTRICITY":0.0008762,"INCLINATION":3.3928,"RA_OF_ASC_NODE":69.5393,"ARG_OF_PERICENTER":211.9137,"MEAN_ANOMALY":340.8851,"EPHEMERIS_TYPE":0,"CLASSIFICATION_TYPE":"U","NORAD_CAT_ID":37210,"ELEMENT_SET_NO":999,"REV_AT_EPOCH":5626,"BSTAR":0,"MEAN_MOTION_DOT":-1.14e-6,"MEAN_MOTION_DDOT":0},{"OBJECT_NAME":"SKYTERRA 1","OBJECT_ID":"2010-061A","EPOCH":"2026-03-06T13:28:29.769888","MEAN_MOTION":1.00272913,"ECCENTRICITY":0.00015506,"INCLINATION":4.9068,"RA_OF_ASC_NODE":50.9124,"ARG_OF_PERICENTER":303.7078,"MEAN_ANOMALY":270.452,"EPHEMERIS_TYPE":0,"CLASSIFICATION_TYPE":"U","NORAD_CAT_ID":37218,"ELEMENT_SET_NO":999,"REV_AT_EPOCH":5616,"BSTAR":0,"MEAN_MOTION_DOT":-1.21e-6,"MEAN_MOTION_DDOT":0},{"OBJECT_NAME":"HYLAS 1","OBJECT_ID":"2010-065A","EPOCH":"2026-03-06T19:06:19.876032","MEAN_MOTION":1.00650856,"ECCENTRICITY":0.0003309,"INCLINATION":5.3835,"RA_OF_ASC_NODE":74.2755,"ARG_OF_PERICENTER":332.6761,"MEAN_ANOMALY":46.7309,"EPHEMERIS_TYPE":0,"CLASSIFICATION_TYPE":"U","NORAD_CAT_ID":37237,"ELEMENT_SET_NO":999,"REV_AT_EPOCH":586,"BSTAR":0,"MEAN_MOTION_DOT":7.1e-7,"MEAN_MOTION_DDOT":0},{"OBJECT_NAME":"INTELSAT 17 (IS-17)","OBJECT_ID":"2010-065B","EPOCH":"2026-03-06T14:16:17.685696","MEAN_MOTION":1.00272934,"ECCENTRICITY":0.00024852,"INCLINATION":0.0162,"RA_OF_ASC_NODE":180.173,"ARG_OF_PERICENTER":170.8958,"MEAN_ANOMALY":93.3048,"EPHEMERIS_TYPE":0,"CLASSIFICATION_TYPE":"U","NORAD_CAT_ID":37238,"ELEMENT_SET_NO":999,"REV_AT_EPOCH":5221,"BSTAR":0,"MEAN_MOTION_DOT":-5.0e-8,"MEAN_MOTION_DDOT":0},{"OBJECT_NAME":"BEIDOU-2 IGSO-2","OBJECT_ID":"2010-068A","EPOCH":"2026-03-04T13:12:14.573952","MEAN_MOTION":1.00258965,"ECCENTRICITY":0.00473304,"INCLINATION":47.7317,"RA_OF_ASC_NODE":273.1244,"ARG_OF_PERICENTER":213.1251,"MEAN_ANOMALY":341.1802,"EPHEMERIS_TYPE":0,"CLASSIFICATION_TYPE":"U","NORAD_CAT_ID":37256,"ELEMENT_SET_NO":999,"REV_AT_EPOCH":5574,"BSTAR":0,"MEAN_MOTION_DOT":-1.78e-6,"MEAN_MOTION_DDOT":0},{"OBJECT_NAME":"EUTELSAT KA-SAT 9A","OBJECT_ID":"2010-069A","EPOCH":"2026-03-06T08:51:56.954016","MEAN_MOTION":1.00271346,"ECCENTRICITY":0.00025992,"INCLINATION":0.0575,"RA_OF_ASC_NODE":355.3085,"ARG_OF_PERICENTER":151.5415,"MEAN_ANOMALY":159.2287,"EPHEMERIS_TYPE":0,"CLASSIFICATION_TYPE":"U","NORAD_CAT_ID":37258,"ELEMENT_SET_NO":999,"REV_AT_EPOCH":4297,"BSTAR":0,"MEAN_MOTION_DOT":5.7e-7,"MEAN_MOTION_DDOT":0},{"OBJECT_NAME":"HISPASAT 30W-5","OBJECT_ID":"2010-070A","EPOCH":"2026-03-06T14:48:04.271904","MEAN_MOTION":1.00273296,"ECCENTRICITY":0.00033589,"INCLINATION":0.016,"RA_OF_ASC_NODE":149.8564,"ARG_OF_PERICENTER":216.7864,"MEAN_ANOMALY":349.6986,"EPHEMERIS_TYPE":0,"CLASSIFICATION_TYPE":"U","NORAD_CAT_ID":37264,"ELEMENT_SET_NO":999,"REV_AT_EPOCH":5215,"BSTAR":0,"MEAN_MOTION_DOT":-2.2e-6,"MEAN_MOTION_DDOT":0}]
